IXPE                    
1 49954U 21121A   24084.58334491  .00012586  00000+0  99376-3 0  9991
2 49954   0.2301 301.1734 0009479 100.8932 106.6479 14.96981838  5140
